{
  "links" : {
    "next" : "https://api.nasa.gov/neo/rest/v1/feed?start_date=1995-06-23&end_date=1995-06-23&detailed=true&api_key=t0TVs3DtDT2H8Oy2Zy8m2eVrNsAVKAexjcZXUckd",
    "prev" : "https://api.nasa.gov/neo/rest/v1/feed?start_date=1995-06-21&end_date=1995-06-21&detailed=true&api_key=t0TVs3DtDT2H8Oy2Zy8m2eVrNsAVKAexjcZXUckd",
    "self" : "https://api.nasa.gov/neo/rest/v1/feed?start_date=1995-06-22&end_date=1995-06-22&detailed=true&api_key=t0TVs3DtDT2H8Oy2Zy8m2eVrNsAVKAexjcZXUckd"
  },
  "element_count" : 5,
  "near_earth_objects" : {
    "1995-06-22" : [ {
      "links" : {
        "self" : "https://api.nasa.gov/neo/rest/v1/neo/2308242?api_key=t0TVs3DtDT2H8Oy2Zy8m2eVrNsAVKAexjcZXUckd"
      },
      "neo_reference_id" : "2308242",
      "name" : "308242 (2005 GO21)",
      "nasa_jpl_url" : "http://ssd.jpl.nasa.gov/sbdb.cgi?sstr=2308242",
      "absolute_magnitude_h" : 16.5,
      "estimated_diameter" : {
        "kilometers" : {
          "estimated_diameter_min" : 1.332155667,
          "estimated_diameter_max" : 2.978790628
        },
        "meters" : {
          "estimated_diameter_min" : 1332.1556669813,
          "estimated_diameter_max" : 2978.7906279817
        },
        "miles" : {
          "estimated_diameter_min" : 0.8277628989,
          "estimated_diameter_max" : 1.8509341113
        },
        "feet" : {
          "estimated_diameter_min" : 4370.5895984589,
          "estimated_diameter_max" : 9772.9354439076
        }
      },
      "is_potentially_hazardous_asteroid" : true,
      "close_approach_data" : [ {
        "close_approach_date" : "1995-06-22",
        "epoch_date_close_approach" : 803804400000,
        "relative_velocity" : {
          "kilometers_per_second" : "13.1145420116",
          "kilometers_per_hour" : "47212.3512417499",
          "miles_per_hour" : "29335.9190257418"
        },
        "miss_distance" : {
          "astronomical" : "0.046096606",
          "lunar" : "17.9315795898",
          "kilometers" : "6895954",
          "miles" : "4284947"
        },
        "orbiting_body" : "Earth"
      } ],
      "orbital_data" : {
        "orbit_id" : "75",
        "orbit_determination_date" : "2017-04-06 09:23:57",
        "orbit_uncertainty" : "0",
        "minimum_orbit_intersection" : ".0436453",
        "jupiter_tisserand_invariant" : "7.557",
        "epoch_osculation" : "2458000.5",
        "eccentricity" : ".3399797159866457",
        "semi_major_axis" : ".7531844336406677",
        "inclination" : "24.9272962782371",
        "ascending_node_longitude" : "272.6928189515696",
        "orbital_period" : "238.7538758060025",
        "perihelion_distance" : ".4971170038059509",
        "perihelion_argument" : "156.6239373490321",
        "aphelion_distance" : "1.009251863475384",
        "perihelion_time" : "2458103.876113845509",
        "mean_anomaly" : "204.1265053446825",
        "mean_motion" : "1.507828925434974",
        "equinox" : "J2000"
      }
    }, {
      "links" : {
        "self" : "https://api.nasa.gov/neo/rest/v1/neo/2366746?api_key=t0TVs3DtDT2H8Oy2Zy8m2eVrNsAVKAexjcZXUckd"
      },
      "neo_reference_id" : "2366746",
      "name" : "366746 (2004 LJ)",
      "nasa_jpl_url" : "http://ssd.jpl.nasa.gov/sbdb.cgi?sstr=2366746",
      "absolute_magnitude_h" : 20.2,
      "estimated_diameter" : {
        "kilometers" : {
          "estimated_diameter_min" : 0.2424124811,
          "estimated_diameter_max" : 0.5420507863
        },
        "meters" : {
          "estimated_diameter_min" : 242.4124811008,
          "estimated_diameter_max" : 542.0507863358
        },
        "miles" : {
          "estimated_diameter_min" : 0.1506280858,
          "estimated_diameter_max" : 0.3368146392
        },
        "feet" : {
          "estimated_diameter_min" : 795.3165644948,
          "estimated_diameter_max" : 1778.3819018419
        }
      },
      "is_potentially_hazardous_asteroid" : true,
      "close_approach_data" : [ {
        "close_approach_date" : "1995-06-22",
        "epoch_date_close_approach" : 803804400000,
        "relative_velocity" : {
          "kilometers_per_second" : "11.0655789028",
          "kilometers_per_hour" : "39836.0840499454",
          "miles_per_hour" : "24752.5934475897"
        },
        "miss_distance" : {
          "astronomical" : "0.4891910301",
          "lunar" : "190.2953033447",
          "kilometers" : "73181936",
          "miles" : "45473148"
        },
        "orbiting_body" : "Earth"
      } ],
      "orbital_data" : {
        "orbit_id" : "38",
        "orbit_determination_date" : "2017-04-06 09:22:37",
        "orbit_uncertainty" : "0",
        "minimum_orbit_intersection" : ".0270542",
        "jupiter_tisserand_invariant" : "5.556",
        "epoch_osculation" : "2458000.5",
        "eccentricity" : ".4614920351674892",
        "semi_major_axis" : "1.087142228849047",
        "inclination" : "18.2835214315469",
        "ascending_node_longitude" : "246.750955268562",
        "orbital_period" : "414.0263438840223",
        "perihelion_distance" : ".5854347491409798",
        "perihelion_argument" : "256.0421444347076",
        "aphelion_distance" : "1.588849708557113",
        "perihelion_time" : "2458057.798667410805",
        "mean_anomaly" : "310.1782421031937",
        "mean_motion" : ".8695098882423862",
        "equinox" : "J2000"
      }
    }, {
      "links" : {
        "self" : "https://api.nasa.gov/neo/rest/v1/neo/3545558?api_key=t0TVs3DtDT2H8Oy2Zy8m2eVrNsAVKAexjcZXUckd"
      },
      "neo_reference_id" : "3545558",
      "name" : "(2010 RX30)",
      "nasa_jpl_url" : "http://ssd.jpl.nasa.gov/sbdb.cgi?sstr=3545558",
      "absolute_magnitude_h" : 27.1,
      "estimated_diameter" : {
        "kilometers" : {
          "estimated_diameter_min" : 0.0101054342,
          "estimated_diameter_max" : 0.0225964377
        },
        "meters" : {
          "estimated_diameter_min" : 10.1054341542,
          "estimated_diameter_max" : 22.5964377109
        },
        "miles" : {
          "estimated_diameter_min" : 0.0062792237,
          "estimated_diameter_max" : 0.0140407711
        },
        "feet" : {
          "estimated_diameter_min" : 33.1543125905,
          "estimated_diameter_max" : 74.1352966996
        }
      },
      "is_potentially_hazardous_asteroid" : false,
      "close_approach_data" : [ {
        "close_approach_date" : "1995-06-22",
        "epoch_date_close_approach" : 803804400000,
        "relative_velocity" : {
          "kilometers_per_second" : "12.5521761782",
          "kilometers_per_hour" : "45187.8342415099",
          "miles_per_hour" : "28077.9628930093"
        },
        "miss_distance" : {
          "astronomical" : "0.1217900305",
          "lunar" : "47.3763198853",
          "kilometers" : "18219530",
          "miles" : "11321091"
        },
        "orbiting_body" : "Earth"
      } ],
      "orbital_data" : {
        "orbit_id" : "14",
        "orbit_determination_date" : "2017-04-06 08:56:50",
        "orbit_uncertainty" : "1",
        "minimum_orbit_intersection" : ".00108035",
        "jupiter_tisserand_invariant" : "6.997",
        "epoch_osculation" : "2458000.5",
        "eccentricity" : ".3884472788369994",
        "semi_major_axis" : ".830728067890893",
        "inclination" : "5.059664077001305",
        "ascending_node_longitude" : "166.1544806171286",
        "orbital_period" : "276.5583358674995",
        "perihelion_distance" : ".5080340104651575",
        "perihelion_argument" : "319.7961989090851",
        "aphelion_distance" : "1.153422125316629",
        "perihelion_time" : "2458016.802544911097",
        "mean_anomaly" : "338.7787406603182",
        "mean_motion" : "1.301714514844629",
        "equinox" : "J2000"
      }
    } ]
  }
}